GSAT-15                 
1 41028U 15065A   26164.92302565 -.00000248  00000+0  00000+0 0  9996
2 41028   0.0787 265.8374 0004048 160.9096 261.2625  1.00270691 38765
BADR-7 (ARABSAT-6B)     
1 41029U 15065B   26164.96090265  .00000154  00000+0  00000+0 0  9997
2 41029   0.0289 229.0942 0003645 331.2513  73.8384  1.00272555 38732
LAOSAT 1                
1 41034U 15067A   26164.92995902 -.00000333  00000+0  00000+0 0  9993
2 41034   0.0228 163.9388 0002198 230.1432 331.4617  1.00270957 38826
TELSTAR 12V             
1 41036U 15068A   26164.90156032 -.00000109  00000+0  00000+0 0  9998
2 41036   0.0015 359.3270 0002089  76.2170 136.2371  1.00271069 38597
ELEKTRO-L 2             
1 41105U 15074A   26163.97488203 -.00000109  00000+0  00000+0 0  9996
2 41105   6.6819  70.5757 0000736 255.3930 271.7863  1.00270779 38465
COSMOS 2513             
1 41121U 15075A   26164.42137462 -.00000126  00000+0  00000+0 0  9993
2 41121   0.0796 100.5492 0003255 331.7026  61.4361  1.00271348 38515
EXPRESS-AMU1            
1 41191U 15082A   26164.92214019  .00000165  00000+0  00000+0 0  9999
2 41191   0.0152  45.4096 0002642  38.8150 186.0647  1.00272270 38232
GAOFEN-4                
1 41194U 15083A   26164.92545233 -.00000325  00000+0  00000+0 0  9997
2 41194   0.3476  83.8653 0004356 114.0924 143.1497  1.00270461 38497
BELINTERSAT-1           
1 41238U 16001A   26164.93472932  .00000117  00000+0  00000+0 0  9991
2 41238   0.0458 255.3123 0002394 150.9901 243.9110  1.00268462 38203
IRNSS-1E                
1 41241U 16003A   26163.64327530 -.00000313  00000+0  00000+0 0  9996
2 41241  33.2248  59.8162 0017963 179.0965   5.2620  1.00267194 38039
EUTELSAT 9B             
1 41310U 16005A   26164.90624034  .00000071  00000+0  00000+0 0  9994
2 41310   0.0728  74.5388 0001705 328.1961 194.6996  1.00270329 38083
SES-9                   
1 41380U 16013A   26164.87104819 -.00000335  00000+0  00000+0 0  9994
2 41380   0.0107 338.3404 0001996 107.7175 237.9960  1.00269376 37408
EUTELSAT 65 WEST A      
1 41382U 16014A   26164.89159542 -.00000266  00000+0  00000+0 0  9995
2 41382   0.0554  21.7067 0002004  51.3087  84.9698  1.00270023 37499
IRNSS-1F                
1 41384U 16015A   26164.97520959  .00000164  00000+0  00000+0 0  9997
2 41384   5.3411  96.8526 0017463 185.4201   3.6044  1.00265769 37636
BEIDOU-2 IGSO-6         
1 41434U 16021A   26164.01229207 -.00000156  00000+0  00000+0 0  9999
2 41434  60.2196  38.0819 0057077 231.5209  89.2880  1.00259939 37439
IRNSS-1G                
1 41469U 16027A   26164.78755483 -.00000328  00000+0  00000+0 0  9998
2 41469   5.1897  97.5513 0007538 354.2813 223.3232  1.00267757 37142
JCSAT-2B                
1 41471U 16028A   26164.86368863 -.00000155  00000+0  00000+0 0  9991
2 41471   0.0172 347.1846 0000698 106.8290 273.0914  1.00270989 37092
THAICOM 8               
1 41552U 16031A   26164.95772877 -.00000111  00000+0  00000+0 0  9991
2 41552   0.0780  52.8022 0003435   6.0696 266.6865  1.00269587 36685
INTELSAT 31 (IS-31)     
1 41581U 16035A   26164.88570206 -.00000141  00000+0  00000+0 0  9994
2 41581   0.0175 271.9721 0001164 335.7654 238.2635  1.00270960 36652
BEIDOU-2 G7             
1 41586U 16037A   26164.92631899 -.00000344  00000+0  00000+0 0  9997
2 41586   1.7105  69.2918 0006812   3.9610 272.9086  1.00265401  6853
ABS-2A (MONGOLSAT-1)    
1 41588U 16038A   26164.84236471  .00000000  00000+0  00000+0 0  9996
2 41588   0.0256 342.2724 0001256  34.6383 263.2316  1.00268031 36672
EUTELSAT 117 WEST B     
1 41589U 16038B   26164.66750338 -.00000001  00000+0  00000+0 0  9992
2 41589   0.0229 164.5572 0000362 269.3905 311.3406  1.00270980 36629
BRISAT                  
1 41591U 16039A   26164.72041514 -.00000186  00000+0  00000+0 0  9996
2 41591   0.0169 316.5658 0001880 122.5208 232.7935  1.00270724 36574
ECHOSTAR 18             
1 41592U 16039B   26164.89237543 -.00000272  00000+0  00000+0 0  9990
2 41592   0.0175 352.8251 0001198  92.1954  77.0736  1.00269516 36594
MUOS-5                  
1 41622U 16041A   26164.88318872 -.00000110  00000+0  00000+0 0  9992
2 41622   2.2111 301.5916 0197306 260.8818 272.4304  1.00271312 37052
TIANTONG-1 1            
1 41725U 16048A   26164.97548598 -.00000310  00000+0  00000+0 0  9995
2 41725   3.8431  43.3890 0005820  45.3668 266.0873  1.00267936 36234
JCSAT-16                
1 41729U 16050A   26164.79041484 -.00000241  00000+0  00000+0 0  9997
2 41729   0.0169 334.0924 0000757 126.3750 230.1260  1.00270535 36038
USA 270                 
1 41744U 16052A   26162.34442750  .00000096  00000+0  00000+0 0  9993
2 41744   4.1835  77.2658 0008524 338.7721 152.1702  1.00285262 28079
USA 271                 
1 41745U 16052B   26162.29092666 -.00000344  00000+0  00000+0 0  9992
2 41745   4.1546  77.3359 0010788 156.7037 252.9173  1.00260351 27860
INTELSAT 36 (IS-36)     
1 41747U 16053A   26164.83685622 -.00000014  00000+0  00000+0 0  9991
2 41747   0.0113 357.4330 0001917 330.6184 303.8577  1.00271214 35928
INSAT-3DR               
1 41752U 16054A   26164.92170762 -.00000067  00000+0  00000+0 0  9990
2 41752   0.0977  86.8174 0010626 187.1290  34.0755  1.00270831 35780
GSAT-18                 
1 41793U 16060A   26164.95439355 -.00000067  00000+0  00000+0 0  9991
2 41793   0.0538 103.4846 0005450 328.6612 247.6803  1.00270755 35498
