OBJECT_NAME,OBJECT_ID,EPOCH,MEAN_MOTION,ECCENTRICITY,INCLINATION,RA_OF_ASC_NODE,ARG_OF_PERICENTER,MEAN_ANOMALY,EPHEMERIS_TYPE,CLASSIFICATION_TYPE,NORAD_CAT_ID,ELEMENT_SET_NO,REV_AT_EPOCH,BSTAR,MEAN_MOTION_DOT,MEAN_MOTION_DDOT
GSAT-15,2015-065A,2026-06-13T22:09:09.416160,1.00270691,.00040486,0.0787,265.8374,160.9096,261.2625,0,U,41028,999,3876,0,-.248E-5,0
BADR-7 (ARABSAT-6B),2015-065B,2026-06-13T23:03:41.988960,1.00272555,.00036457,0.0289,229.0942,331.2513,73.8384,0,U,41029,999,3873,0,.154E-5,0
LAOSAT 1,2015-067A,2026-06-13T22:19:08.459328,1.00270957,.00021985,0.0228,163.9388,230.1432,331.4617,0,U,41034,999,3882,0,-.333E-5,0
TELSTAR 12V,2015-068A,2026-06-13T21:38:14.811648,1.00271069,.00020894,0.0015,359.3270,76.2170,136.2371,0,U,41036,999,3859,0,-.109E-5,0
ELEKTRO-L 2,2015-074A,2026-06-12T23:23:49.807392,1.00270779,.00007363,6.6819,70.5757,255.3930,271.7863,0,U,41105,999,3846,0,-.109E-5,0
COSMOS 2513,2015-075A,2026-06-13T10:06:46.767168,1.00271348,.0003255,0.0796,100.5492,331.7026,61.4361,0,U,41121,999,3851,0,-.126E-5,0
EXPRESS-AMU1,2015-082A,2026-06-13T22:07:52.912416,1.00272270,.00026421,0.0152,45.4096,38.8150,186.0647,0,U,41191,999,3823,0,.165E-5,0
GAOFEN-4,2015-083A,2026-06-13T22:12:39.081312,1.00270461,.00043564,0.3476,83.8653,114.0924,143.1497,0,U,41194,999,3849,0,-.325E-5,0
BELINTERSAT-1,2016-001A,2026-06-13T22:26:00.613248,1.00268462,.00023942,0.0458,255.3123,150.9901,243.9110,0,U,41238,999,3820,0,.117E-5,0
IRNSS-1E,2016-003A,2026-06-12T15:26:18.985920,1.00267194,.00179637,33.2248,59.8162,179.0965,5.2620,0,U,41241,999,3803,0,-.313E-5,0
EUTELSAT 9B,2016-005A,2026-06-13T21:44:59.165376,1.00270329,.00017053,0.0728,74.5388,328.1961,194.6996,0,U,41310,999,3808,0,.71E-6,0
SES-9,2016-013A,2026-06-13T20:54:18.563616,1.00269376,.00019963,0.0107,338.3404,107.7175,237.9960,0,U,41380,999,3740,0,-.335E-5,0
EUTELSAT 65 WEST A,2016-014A,2026-06-13T21:23:53.844288,1.00270023,.0002004,0.0554,21.7067,51.3087,84.9698,0,U,41382,999,3749,0,-.266E-5,0
IRNSS-1F,2016-015A,2026-06-13T23:24:18.108576,1.00265769,.00174637,5.3411,96.8526,185.4201,3.6044,0,U,41384,999,3763,0,.164E-5,0
BEIDOU-2 IGSO-6,2016-021A,2026-06-13T00:17:42.034848,1.00259939,.00570771,60.2196,38.0819,231.5209,89.2880,0,U,41434,999,3743,0,-.156E-5,0
IRNSS-1G,2016-027A,2026-06-13T18:54:04.737312,1.00267757,.00075386,5.1897,97.5513,354.2813,223.3232,0,U,41469,999,3714,0,-.328E-5,0
JCSAT-2B,2016-028A,2026-06-13T20:43:42.697632,1.00270989,.00006982,0.0172,347.1846,106.8290,273.0914,0,U,41471,999,3709,0,-.155E-5,0
THAICOM 8,2016-031A,2026-06-13T22:59:07.765728,1.00269587,.00034359,0.0780,52.8022,6.0696,266.6865,0,U,41552,999,3668,0,-.111E-5,0
INTELSAT 31 (IS-31),2016-035A,2026-06-13T21:15:24.657984,1.00270960,.00011646,0.0175,271.9721,335.7654,238.2635,0,U,41581,999,3665,0,-.141E-5,0
BEIDOU-2 G7,2016-037A,2026-06-13T22:13:53.960736,1.00265401,.00068128,1.7105,69.2918,3.9610,272.9086,0,U,41586,999,685,0,-.344E-5,0
ABS-2A (MONGOLSAT-1),2016-038A,2026-06-13T20:13:00.310944,1.00268031,.00012562,0.0256,342.2724,34.6383,263.2316,0,U,41588,999,3667,0,0,0
EUTELSAT 117 WEST B,2016-038B,2026-06-13T16:01:12.292032,1.00270980,.00003627,0.0229,164.5572,269.3905,311.3406,0,U,41589,999,3662,0,-.1E-7,0
BRISAT,2016-039A,2026-06-13T17:17:23.868096,1.00270724,.00018804,0.0169,316.5658,122.5208,232.7935,0,U,41591,999,3657,0,-.186E-5,0
ECHOSTAR 18,2016-039B,2026-06-13T21:25:01.237152,1.00269516,.00011981,0.0175,352.8251,92.1954,77.0736,0,U,41592,999,3659,0,-.272E-5,0
MUOS-5,2016-041A,2026-06-13T21:11:47.505408,1.00271312,.01973062,2.2111,301.5916,260.8818,272.4304,0,U,41622,999,3705,0,-.11E-5,0
TIANTONG-1 1,2016-048A,2026-06-13T23:24:41.988672,1.00267936,.00058204,3.8431,43.3890,45.3668,266.0873,0,U,41725,999,3623,0,-.31E-5,0
JCSAT-16,2016-050A,2026-06-13T18:58:11.842176,1.00270535,.00007575,0.0169,334.0924,126.3750,230.1260,0,U,41729,999,3603,0,-.241E-5,0
USA 270,2016-052A,2026-06-11T08:15:58.536000,1.00285262,.0008524,4.1835,77.2658,338.7721,152.1702,0,U,41744,999,2807,0,.96E-6,0
USA 271,2016-052B,2026-06-11T06:58:56.063424,1.00260351,.0010788,4.1546,77.3359,156.7037,252.9173,0,U,41745,999,2786,0,-.344E-5,0
INTELSAT 36 (IS-36),2016-053A,2026-06-13T20:05:04.377408,1.00271214,.00019171,0.0113,357.4330,330.6184,303.8577,0,U,41747,999,3592,0,-.14E-6,0
INSAT-3DR,2016-054A,2026-06-13T22:07:15.538368,1.00270831,.00106265,0.0977,86.8174,187.1290,34.0755,0,U,41752,999,3578,0,-.67E-6,0
GSAT-18,2016-060A,2026-06-13T22:54:19.602720,1.00270755,.00054503,0.0538,103.4846,328.6612,247.6803,0,U,41793,999,3549,0,-.67E-6,0
